IRIDIUM 144             
1 43249U 18030A   25050.50220908  .00000648  00000+0  22444-3 0  9998
2 43249  86.4003 132.2202 0002274  94.8829 265.2626 14.34213479360952
IRIDIUM 149             
1 43250U 18030B   25050.57832690  .00000094  00000+0  26434-4 0  9993
2 43250  86.3995 132.1605 0002083  92.3757 267.7678 14.34217702360980
IRIDIUM 157             
1 43251U 18030C   25050.59735254  .00000416  00000+0  14150-3 0  9993
2 43251  86.3997 132.1950 0001898 101.9881 258.1528 14.34217085360964
IRIDIUM 140             
1 43252U 18030D   25050.61638301  .00000030  00000+0  36932-5 0  9998
2 43252  86.3996 132.2011 0002350  95.1552 264.9912 14.34217504361022
IRIDIUM 145             
1 43253U 18030E   25050.60369318  .00000264  00000+0  87303-4 0  9993
2 43253  86.3995 132.1792 0002246  85.6463 274.4989 14.34220229360955
IRIDIUM 146             
1 43254U 18030F   25050.58466960 -.00000026  00000+0 -16216-4 0  9995
2 43254  86.3998 132.2011 0002268  86.8758 273.2698 14.34216943360961
IRIDIUM 148             
1 43255U 18030G   25050.62272403  .00000109  00000+0  31902-4 0  9997
2 43255  86.4000 132.2211 0002099  93.0038 267.1398 14.34218410361008
IRIDIUM 142             
1 43256U 18030H   25050.59101077  .00000029  00000+0  32242-5 0  9992
2 43256  86.3995 132.1410 0002197  84.0135 276.1311 14.34218150360968
